CUTE-1 (CO-55)          
1 27844U 03031E   26160.73137062  .00000266  00000+0  13414-3 0  9995
2 27844  98.6735 169.3839 0009036 200.1395 159.9429 14.24331147190618
CUBESAT XI-IV (CO-57)   
1 27848U 03031J   26160.01325554  .00000222  00000+0  11652-3 0  9999
2 27848  98.6766 168.3941 0008561 222.5153 137.5363 14.23616414190218
CUBESAT XI-V            
1 28895U 05043F   26160.38487946  .00001300  00000+0  21228-3 0  9999
2 28895  98.2976 315.8433 0013165 226.6554 133.3557 14.72610450100602
CUTE-1.7+APD II (CO-65) 
1 32785U 08021C   26160.82406314  .00005261  00000+0  33312-3 0  9997
2 32785  97.8271 142.0896 0010336  60.4775 299.7482 15.09383390984084
CANX-2                  
1 32790U 08021H   26160.51234527  .00002929  00000+0  20759-3 0  9993
2 32790  97.8624 140.1415 0011901  73.4077 286.8455 15.05558112983657
SEEDS II (CO-66)        
1 32791U 08021J   26160.23552937  .00016060  00000+0  51422-3 0  9993
2 32791  97.7519 157.7552 0002294  29.0945 331.0423 15.32477826986071
SWISSCUBE               
1 35932U 09051B   26160.71112973  .00000922  00000+0  19187-3 0  9994
2 35932  98.4042  68.4691 0005562 230.1201 129.9511 14.62467613888060
BEESAT-1                
1 35933U 09051C   26160.51132019  .00000778  00000+0  16607-3 0  9999
2 35933  98.3972  67.9173 0003918 247.5852 112.4933 14.61708260888068
ITUPSAT1                
1 35935U 09051E   26160.70103260  .00000707  00000+0  15594-3 0  9994
2 35935  98.4055  67.3098 0006127 262.2059  97.8445 14.60429700887646
TISAT 1                 
1 36799U 10035E   26159.81960297  .00020138  00000+0  66607-3 0  9999
2 36799  98.0700 105.6282 0000185 170.3248 189.7995 15.31390446866423
AEROCUBE 4.5A           
1 38767U 12048K   26160.44094088  .00314306  43380-4  10194-2 0  9994
2 38767  64.6259  55.1328 0019596 217.0625 142.9182 15.90197538371424
STRAND-1                
1 39090U 13009E   26160.74571146  .00000270  00000+0  10517-3 0  9999
2 39090  98.3921 341.1634 0007454 250.7154 109.3227 14.37158906695997
BRITE-AUSTRIA           
1 39091U 13009F   26160.75537637  .00000156  00000+0  67785-4 0  9991
2 39091  98.3993 340.3753 0008967 261.6258  98.3912 14.36539135695989
NEE-01 PEGASO           
1 39151U 13018B   26160.36060530  .00002551  00000+0  24707-3 0  9995
2 39151  98.1215 304.2532 0012522 183.6303 176.4827 14.93624676709539
POPACS 2                
1 39269U 13055E   26160.39209111  .00010185  00000+0  17333-3 0  9998
2 39269  80.9908 153.1144 0417129 218.8379 138.2180 14.91020614662056
POPACS 3                
1 39270U 13055F   26160.49176895  .00010418  00000+0  24503-3 0  9999
2 39270  81.0013 237.5281 0552819  93.4066 273.0497 14.55979043637434
ZACUBE-1 (TSHEPISOSAT)  
1 39417U 13066B   26160.47518227  .00003043  00000+0  23849-3 0  9999
2 39417  97.8090 122.7702 0040069 274.7996  84.8653 15.01140367679579
WNISAT-1                
1 39423U 13066H   26160.66221490  .00000685  00000+0  13374-3 0  9991
2 39423  97.7193 310.3529 0161705 255.4814 102.8401 14.58050476665633
TRITON-1                
1 39427U 13066M   26161.00218096  .00001842  00000+0  22564-3 0  9999
2 39427  97.8246  70.9725 0088315 257.7469 101.3843 14.81682119673027
GOMX-1                  
1 39430U 13066Q   26160.89989683  .00001996  00000+0  30354-3 0  9992
2 39430  97.6494   1.8227 0130145 100.6723 260.9170 14.69433394668846
CUBEBUG-2 (LO-74)       
1 39440U 13066AA  26160.82855144  .00003514  00000+0  32653-3 0  9992
2 39440  97.8901 109.7759 0059110  52.8866 307.7734 14.93703888675892
NEE-02 KRYSAOR          
1 39441U 13066AB  26160.80525174  .00001836  00000+0  20499-3 0  9998
2 39441  97.8886 100.0728 0067737  93.8296 267.0667 14.86587179675103
FUNCUBE-1 (AO-73)       
1 39444U 13066AE  26160.63191957  .00005129  00000+0  32071-3 0  9998
2 39444  97.8267 131.9204 0034885 227.2487 132.5804 15.09398599678524
UWE-3                   
1 39446U 13066AG  26160.12782108  .00003499  00000+0  30256-3 0  9999
2 39446  97.8686 116.1479 0048769 348.2293  11.7784 14.96959057676378
BRITE-CA1 (TORONTO)     
1 40020U 14033L   26160.63182130  .00000647  00000+0  10505-3 0  9996
2 40020  97.9730 289.6994 0077411 301.6359  57.7312 14.72666383641100
DUCHIFAT-1              
1 40021U 14033M   26160.66319580  .00089241  00000+0  97274-3 0  9996
2 40021  98.0468 218.7756 0004250 128.7819 231.3818 15.63096310654574
NANOSATC-BR1            
1 40024U 14033Q   26160.03741032  .00014864  00000+0  49566-3 0  9991
2 40024  98.0734 191.7047 0003543 185.9906 174.1292 15.31195370652739
QB50P1                  
1 40025U 14033R   26160.76831812  .00008189  00000+0  40439-3 0  9991
2 40025  98.0973 171.3946 0007226 244.9283 115.1199 15.18148380651906
QB50P2                  
1 40032U 14033Y   26160.70327472  .00005888  00000+0  31854-3 0  9999
2 40032  98.0753 157.1181 0007229 187.2698 172.8429 15.15063299651532
PERSEUS-M2              
1 40037U 14033AD  26160.90393030  .00000933  00000+0  89694-4 0  9991
2 40037  97.9966 111.2969 0011320 331.9697  28.0912 14.95491289649694
